COSMOS 2561             
1 54109U 22137A   23309.89994391  .00028629  00000+0  74310-3 0  9997
2 54109  97.0430  29.9802 0012129 231.7734 128.2421 15.38864408 59063
GONETS-M 23             
1 54150U 22139A   23310.12768899  .00000036  00000+0  18808-3 0  9997
2 54150  82.5087 221.1226 0021174 140.7539 219.5081 12.42892219 47127
GONETS-M 24             
1 54151U 22139B   23310.09878890  .00000039  00000+0  21107-3 0  9996
2 54151  82.5006 220.8429 0015924 149.4731 210.7278 12.42891430 47121
GONETS-M 25             
1 54152U 22139C   23310.16600880  .00000034  00000+0  17270-3 0  9998
2 54152  82.5070 220.9786 0019738 149.2517 210.9723 12.42882221 47133
SKIF-D                  
1 54153U 22139D   23309.53249847  .00000038  00000+0  00000+0 0  9993
2 54153  89.9984  96.7919 0008089 108.9012 251.2298  5.00431718 16346
MATS                    
1 54227U 22147A   23309.96375693  .00009089  00000+0  83077-3 0  9994
2 54227  97.6613 308.2852 0013636 155.8445 204.3418 14.95166930 54671
JILIN-1 GAOFEN 03D54    
1 54254U 22155D   23310.14592704  .00035958  00000+0  18484-2 0  9992
2 54254  97.5516  55.6543 0014562 141.8787 218.3479 15.16280860 53646
EOS-6 (OCEANSAT-3)      
1 54361U 22158A   23310.18184601  .00001289  00000+0  36636-3 0  9991
2 54361  98.3546  45.2564 0001384 106.3076 253.8269 14.47003491 49877
THYBOLT-1               
1 54363U 22158C   23310.08372971  .00123767  00000+0  31171-2 0  9995
2 54363  97.4430  49.6331 0007231 127.4467 232.7437 15.39397292 52623
THYBOLT-2               
1 54364U 22158D   23310.10682379  .00124327  00000+0  31634-2 0  9992
2 54364  97.4430  49.6033 0007098 127.9924 232.1963 15.39082127 52623
INS-2B                  
1 54365U 22158E   23310.08513837  .00111635  00000+0  29409-2 0  9997
2 54365  97.4397  49.2872 0007970 137.8208 222.3651 15.38058256 52616
ANAND                   
1 54366U 22158F   23310.10022437  .00080259  00000+0  23944-2 0  9997
2 54366  97.4390  48.5898 0008604 136.0604 224.1324 15.34297712 52576
ASTROCAST-0304          
1 54367U 22158G   23310.09908196  .00032434  00000+0  12064-2 0  9994
2 54367  97.4424  47.5544 0009716 144.6957 215.4928 15.27400723 52486
ASTROCAST-0303          
1 54368U 22158H   23310.13733834  .00030174  00000+0  10914-2 0  9996
2 54368  97.4464  47.7915 0007620 161.5801 198.5716 15.28353786 52509
ASTROCAST-0302          
1 54369U 22158J   23310.12911863  .00030950  00000+0  11436-2 0  9998
2 54369  97.4455  47.7739 0008076 144.6500 215.5276 15.27642418 52501
ASTROCAST-0301          
1 54370U 22158K   23309.85171298  .00016008  00000+0  59543-3 0  9998
2 54370  97.4468  47.5760 0008899 155.2784 204.8884 15.27556893 52466
2022-167A               
1 54682U 22167A   23310.13740987  .00063135  00000+0  27884-2 0  9999
2 54682  97.5742  87.6963 0011086 201.8974 158.1789 15.21436073 50238
CAS-5A (FO-118)         
1 54684U 22167C   23310.12637193  .00049034  00000+0  23600-2 0  9998
2 54684  97.5804  87.2984 0012156 203.6810 156.3866 15.18534439 50187
DONGPO 09               
1 54685U 22167D   23310.14416435  .00028577  00000+0  15462-2 0  9991
2 54685  97.5870  86.9065 0008420 212.9790 147.0917 15.14581273 50140
DONGPO 08               
1 54686U 22167E   23310.11277701  .00026918  00000+0  14668-2 0  9994
2 54686  97.5825  86.5931 0008732 231.0894 128.9559 15.14339020 50132
2022-167F               
1 54687U 22167F   23310.09963857  .00049516  00000+0  24333-2 0  9995
2 54687  97.5742  86.8907 0013052 213.7345 146.3059 15.17796307 50166
DONGPO 10               
1 54689U 22167H   23310.15434573  .00025762  00000+0  14066-2 0  9991
2 54689  97.5891  86.9931 0011715 201.5392 158.5348 15.14251669 50140
2022-167M               
1 54693U 22167M   23310.11846981  .00074179  00000+0  31265-2 0  9998
2 54693  97.5796  88.2748 0011365 202.4704 157.6036 15.22970496 50215
JILIN-1 GAOFEN 03D48    
1 54695U 22167P   23310.09834234  .00017912  00000+0  98285-3 0  9993
2 54695  97.5834  86.8071 0012291 213.2426 146.8035 15.14147756 50140
CZ-2D R/B               
1 54747U 22171B   23310.30543412  .52328310  13264-5  50114-2 0  9999
2 54747  34.9782  21.4032 0000010 355.4110  75.8584 16.37371348 50391
STAR VIBE               
1 55009U 23001A   23310.10987333  .00022122  00000+0  11582-2 0  9995
2 55009  97.4594   6.7188 0008130 251.1724 108.8627 15.15803973 46524
BRO-8                   
1 55011U 23001C   23310.10421088  .00017982  00000+0  94236-3 0  9994
2 55011  97.4656   6.9502 0009089 253.4001 106.6234 15.15807889 46525
CONNECTA T1.2           
1 55012U 23001D   23310.12955805  .00016177  00000+0  82068-3 0  9991
2 55012  97.4667   7.2888 0009840 248.6011 111.4173 15.16969321 46540
BIRKELAND               
1 55015U 23001G   23310.11582479  .00032882  00000+0  16038-2 0  9990
2 55015  97.4656   7.5544 0008907 241.5416 118.4921 15.18200320 46566
ION SCV-008             
1 55051U 23001AU  23310.18541383  .00011778  00000+0  72461-3 0  9990
2 55051  97.6284  24.5572 0006571 266.2325  93.8153 15.10163561 46451
ION SCV-007             
1 55060U 23001BD  23310.12138556  .00001779  00000+0  27117-3 0  9996
2 55060  98.0315  10.0246 0013475 156.8538 203.3281 14.75099321 45462
NSL-2                   
1 55067U 23001BL  23310.15595801  .00080181  00000+0  27592-2 0  9996
2 55067  97.4634  10.2245 0011308 223.7236 136.3109 15.29685751 46743
TAUSAT-2                
1 55073U 23001BS  23310.15832639  .00044866  00000+0  19397-2 0  9990
2 55073  97.4612   8.7066 0013930 210.2208 149.8226 15.22231576 46656
FLOCK 4Y-23             
1 55080U 23001BZ  23310.10646931  .00060948  00000+0  26764-2 0  9996
2 55080  97.4595   8.5483 0013030 230.9759 129.0318 15.21623132 46649
HUYGENS                 
1 55093U 23001CN  23310.13059036  .00016494  00000+0  81038-3 0  9990
2 55093  97.4608   7.6422 0014528 224.5009 135.5059 15.18036263 46587
BDSAT-2                 
1 55098U 23001CT  23310.14710983  .00048929  00000+0  20931-2 0  9993
2 55098  97.4645   8.8654 0013428 223.8148 136.2024 15.22574503 46654
SHARJAHSAT-1            
1 55104U 23001CZ  23310.13977238  .00023000  00000+0  11860-2 0  9992
2 55104  97.4612   6.9103 0009812 252.8936 107.1223 15.16320317 46533
2023-003A               
1 55133U 23003A   23310.14721030  .00032972  00000+0  15871-2 0  9998
2 55133  97.2512  27.4126 0004168 298.2407  61.8407 15.18685308 45604
2023-007N               
1 55260U 23007N   23310.12693568  .00100046  00000+0  22520-2 0  9992
2 55260  97.3390  23.3428 0005753 337.4171  22.6823 15.42905559 45219
2023-007P               
1 55261U 23007P   23310.13861301  .00062479  00000+0  16611-2 0  9997
2 55261  97.3397  22.3998 0007468 347.5666  12.5393 15.37993500 45154
ION SCV-009             
1 55441U 23014BC  23310.14079748  .00177810  00000+0  11880-2 0  9991
2 55441  70.0041  34.2371 0008503 299.2189  60.8158 15.74602607 43855
EOS-7                   
1 55562U 23019A   23310.12781205  .00092450  00000+0  18347-2 0  9997
2 55562  37.1805 216.2568 0001882 217.8363 142.2265 15.45814858 41587
AZAADISAT-2             
1 55563U 23019B   23310.02269962  .00665499  00000+0  23008-2 0  9997
2 55563  37.1701 184.5104 0010697 264.9275  95.0277 15.86872841 41911
HORUS 1                 
1 55690U 23025A   23310.14314645  .00027943  00000+0  11736-2 0  9998
2 55690  97.4491  22.5447 0006835 110.6879 249.5091 15.23389869 38802
HORUS 2                 
1 55844U 23032A   23310.17503833  .00027359  00000+0  11518-2 0  9998
2 55844  97.4539  22.6458 0005158 152.1998 207.9516 15.23323015 36246
GLOBAL-19               
1 55982U 23041B   23310.14118506  .00057045  00000+0  14669-2 0  9992
2 55982  42.0159   8.0413 0016865   6.8637 353.2431 15.38284333 34978
DEWASAT-2               
1 56180U 23054C   23310.11266130  .00064435  00000+0  23350-2 0  9999
2 56180  97.3890 203.3535 0006578 257.5685 102.4818 15.28107020 31793
KILICSAT                
1 56181U 23054D   23310.15033622  .00050961  00000+0  19023-2 0  9993
2 56181  97.3842 203.1956 0005974 253.2721 106.7863 15.27200905 31803
SSS-2B                  
1 56184U 23054G   23310.12504668  .00057403  00000+0  21149-2 0  9996
2 56184  97.3906 203.3990 0007065 253.8491 106.1970 15.27593608 31808
BRO-9                   
1 56185U 23054H   23310.13138997  .00024234  00000+0  97510-3 0  9998
2 56185  97.3815 202.8216 0006584 245.5339 114.5212 15.24866234 31781
CIRBE                   
1 56188U 23054L   23310.14556424  .00084421  00000+0  29127-2 0  9993
2 56188  97.3861 203.5477 0005709 239.5990 120.4687 15.29624466 31827
ION SCV-010             
1 56192U 23054Q   23309.96500999  .00008275  00000+0  60290-3 0  9992
2 56192  97.4919 200.5035 0013574 153.4502 206.7422 15.03925793 31471
GHOST-1                 
1 56195U 23054T   23310.14017168  .00024559  00000+0  97675-3 0  9998
2 56195  97.3838 203.0250 0008384 230.3593 129.6906 15.25241079 31795
GHOST-2                 
1 56197U 23054V   23310.14337249  .00029433  00000+0  11402-2 0  9994
2 56197  97.3830 203.1627 0008845 231.4806 128.5641 15.26079479 31809
TOMORROW-R1             
1 56199U 23054X   23309.67853228  .00021357  00000+0  80164-3 0  9991
2 56199  97.3855 202.9230 0008718 236.9848 123.0554 15.27194736 31741
FACSAT-2                
1 56205U 23054AD  23310.15994069  .00027834  00000+0  10317-2 0  9991
2 56205  97.3879 203.7068 0011912 222.4453 137.5866 15.27525377 31830
CONNECTA T2.1           
1 56210U 23054AJ  23310.11115410  .00027989  00000+0  10570-2 0  9990
2 56210  97.3804 203.2627 0010912 217.6681 142.3795 15.26917229 31811
INSPIRE-SAT 7           
1 56211U 23054AK  23309.97579395  .00075817  00000+0  24607-2 0  9998
2 56211  97.3882 203.9877 0009850 221.8207 138.2283 15.31616650 31830
ROSEYCUBESAT-1          
1 56212U 23054AL  23310.12490898  .00085894  00000+0  27196-2 0  9990
2 56212  97.3888 204.2625 0009977 219.8154 140.2357 15.32364756 31866
